NORAD_CAT_ID,OBJECT_NAME,OBJECT_TYPE,EPOCH,MEAN_MOTION,ECCENTRICITY,INCLINATION,RA_OF_ASC_NODE,ARG_OF_PERICENTER,MEAN_ANOMALY,BSTAR,MEAN_MOTION_DOT,MEAN_MOTION_DDOT,TLE_LINE0,TLE_LINE1,TLE_LINE2,SEMIMAJOR_AXIS,PERIOD,APOGEE,PERIGEE,DECAYED
54055.0,STARLINK-5158,PAYLOAD,2024-07-01 09:44:02,15.08838332,0.0001435,53.2162,230.8955,88.1061,272.0095,7.5983e-05,9.21e-06,0.0,0 STARLINK-5158,1 54055U 22136E   24183.40558298  .00000921  00000-0  75983-4 0  9990,2 54055  53.2162 230.8955 0001435  88.1061 272.0095 15.08838332 94288,6917.885,95.438,540.743,538.758,0.0
54055.0,STARLINK-5158,PAYLOAD,2024-07-02 12:45:36,15.0882473,0.000146,53.2173,225.8408,90.8328,269.2832,0.00023667,3.479e-05,0.0,0 STARLINK-5158,1 54055U 22136E   24184.53166915  .00003479  00000-0  23667-3 0  9998,2 54055  53.2173 225.8408 0001460  90.8328 269.2832 15.08824730 94454,6917.927,95.439,540.802,538.782,0.0
54055.0,STARLINK-5158,PAYLOAD,2024-07-03 12:36:23,15.08837845,0.0001267,53.216,221.3796,85.0087,275.105,3.0676e-05,2e-06,0.0,0 STARLINK-5158,1 54055U 22136E   24185.52526623  .00000200  00000-0  30676-4 0  9992,2 54055  53.2160 221.3796 0001267  85.0087 275.1050 15.08837845 94600,6917.887,95.438,540.628,538.875,0.0
54055.0,STARLINK-5158,PAYLOAD,2024-07-04 09:16:23,15.08836297,0.0001234,53.2157,217.514,84.8934,275.2199,3.9024e-05,3.33e-06,0.0,0 STARLINK-5158,1 54055U 22136E   24186.38638762  .00000333  00000-0  39024-4 0  9998,2 54055  53.2157 217.5140 0001234  84.8934 275.2199 15.08836297 94254,6917.892,95.438,540.61,538.903,0.0
54055.0,STARLINK-5158,PAYLOAD,2024-07-04 18:48:42,15.08840151,0.0001271,53.216,215.7298,84.4804,275.6333,5.9898e-05,6.66e-06,0.0,0 STARLINK-5158,1 54055U 22136E   24186.78382470  .00000666  00000-0  59898-4 0  9994,2 54055  53.2160 215.7298 0001271  84.4804 275.6333 15.08840151 94792,6917.88,95.438,540.624,538.866,0.0
54055.0,STARLINK-5158,PAYLOAD,2024-07-05 02:45:38,15.08834955,0.0001475,53.2171,214.2448,93.4925,266.6236,1.7972e-05,-2e-08,0.0,0 STARLINK-5158,1 54055U 22136E   24187.11503047 -.00000002  00000-0  17972-4 0  9999,2 54055  53.2171 214.2448 0001475  93.4925 266.6236 15.08834955 94848,6917.896,95.438,540.781,538.74,0.0
54055.0,STARLINK-5158,PAYLOAD,2024-07-05 10:42:34,15.08836536,0.0001439,53.2169,212.7581,93.2631,266.8525,2.6103e-05,1.27e-06,0.0,0 STARLINK-5158,1 54055U 22136E   24187.44622979  .00000127  00000-0  26103-4 0  9994,2 54055  53.2169 212.7581 0001439  93.2631 266.8525 15.08836536 94411,6917.891,95.438,540.751,538.76,0.0
54055.0,STARLINK-5158,PAYLOAD,2024-07-05 18:39:29,15.08840337,0.0001428,53.2172,211.2713,91.3384,268.7771,4.2214e-05,3.84e-06,0.0,0 STARLINK-5158,1 54055U 22136E   24187.77742744  .00000384  00000-0  42214-4 0  9999,2 54055  53.2172 211.2713 0001428  91.3384 268.7771 15.08840337 94461,6917.879,95.438,540.732,538.756,0.0
54055.0,STARLINK-5158,PAYLOAD,2024-07-06 10:33:21,15.08837642,0.0001396,53.2167,208.2972,88.5561,271.5591,5.0886e-05,5.22e-06,0.0,0 STARLINK-5158,1 54055U 22136E   24188.43982958  .00000522  00000-0  50886-4 0  9994,2 54055  53.2167 208.2972 0001396  88.5561 271.5591 15.08837642 95049,6917.888,95.438,540.718,538.787,0.0
54055.0,STARLINK-5158,PAYLOAD,2024-07-06 18:30:16,15.08841495,0.0001396,53.2165,206.8103,86.9195,273.1957,3.35e-05,2.45e-06,0.0,0 STARLINK-5158,1 54055U 22136E   24188.77102714  .00000245  00000-0  33500-4 0  9991,2 54055  53.2165 206.8103 0001396  86.9195 273.1957 15.08841495 94619,6917.876,95.437,540.707,538.775,0.0
54055.0,STARLINK-5158,PAYLOAD,2024-07-07 07:13:21,15.08838164,0.0001351,53.2161,204.4311,87.8774,272.2373,7.1633e-05,8.52e-06,0.0,0 STARLINK-5158,1 54055U 22136E   24189.30094821  .00000852  00000-0  71633-4 0  9993,2 54055  53.2161 204.4311 0001351  87.8774 272.2373 15.08838164 94693,6917.886,95.438,540.686,538.816,0.0
54055.0,STARLINK-5158,PAYLOAD,2024-07-08 07:04:08,15.08842064,0.0001307,53.2159,199.9698,89.4222,270.692,3.9813e-05,3.46e-06,0.0,0 STARLINK-5158,1 54055U 22136E   24190.29454559  .00000346  00000-0  39813-4 0  9993,2 54055  53.2159 199.9698 0001307  89.4222 270.6920 15.08842064 95328,6917.874,95.437,540.643,538.835,0.0
54055.0,STARLINK-5158,PAYLOAD,2024-07-08 18:11:50,15.08842849,0.0001301,53.216,197.8884,88.9677,271.1464,3.7469e-05,3.09e-06,0.0,0 STARLINK-5158,1 54055U 22136E   24190.75822445  .00000309  00000-0  37469-4 0  9991,2 54055  53.2160 197.8884 0001301  88.9677 271.1464 15.08842849 94910,6917.872,95.437,540.637,538.837,0.0
54055.0,STARLINK-5158,PAYLOAD,2024-07-09 06:54:55,15.08838832,0.0001337,53.2161,195.51,88.583,271.5315,1.6607e-05,-2.4e-07,0.0,0 STARLINK-5158,1 54055U 22136E   24191.28814734 -.00000024  00000-0  16607-4 0  9998,2 54055  53.2161 195.5100 0001337  88.5830 271.5315 15.08838832 94997,6917.884,95.438,540.674,538.824,0.0
54055.0,STARLINK-5158,PAYLOAD,2024-07-10 06:45:43,15.08835269,0.0001369,53.2161,191.0491,90.234,269.8809,-1.9033e-05,-5.91e-06,0.0,0 STARLINK-5158,1 54055U 22136E   24192.28175115 -.00000591  00000-0 -19033-4 0  9998,2 54055  53.2161 191.0491 0001369  90.2340 269.8809 15.08835269 95149,6917.895,95.438,540.707,538.813,0.0
54055.0,STARLINK-5158,PAYLOAD,2024-07-11 05:01:07,15.08836484,0.0001369,53.2165,186.8858,89.1229,270.992,2.9792e-05,1.86e-06,0.0,0 STARLINK-5158,1 54055U 22136E   24193.20911058  .00000186  00000-0  29792-4 0  9996,2 54055  53.2165 186.8858 0001369  89.1229 270.9920 15.08836484 95760,6917.891,95.438,540.703,538.809,0.0
54055.0,STARLINK-5158,PAYLOAD,2024-07-12 06:27:17,15.08833833,0.0001292,53.2161,182.1279,88.1002,272.0138,4.8269e-05,4.8e-06,0.0,0 STARLINK-5158,1 54055U 22136E   24194.26895436  .00000480  00000-0  48269-4 0  9991,2 54055  53.2161 182.1279 0001292  88.1002 272.0138 15.08833833 95922,6917.899,95.438,540.658,538.87,0.0
54055.0,STARLINK-5158,PAYLOAD,2024-07-12 15:59:36,15.08838556,0.0001318,53.2164,180.3435,87.9706,272.1437,6.5349e-05,7.52e-06,0.0,0 STARLINK-5158,1 54055U 22136E   24194.66639201  .00000752  00000-0  65349-4 0  9991,2 54055  53.2164 180.3435 0001318  87.9706 272.1437 15.08838556 95500,6917.885,95.438,540.662,538.838,0.0
54055.0,STARLINK-5158,PAYLOAD,2024-07-13 06:18:04,15.08838953,0.0001459,53.2173,177.6686,97.3975,262.7182,4.5133e-05,4.3e-06,0.0,0 STARLINK-5158,1 54055U 22136E   24195.26255360  .00000430  00000-0  45133-4 0  9990,2 54055  53.2173 177.6686 0001459  97.3975 262.7182 15.08838953 95598,6917.884,95.438,540.758,538.739,0.0
54055.0,STARLINK-5158,PAYLOAD,2024-07-13 15:50:23,15.08845019,0.0001447,53.2175,175.8833,85.608,274.5078,8.5083e-05,1.067e-05,0.0,0 STARLINK-5158,1 54055U 22136E   24195.65998876  .00001067  00000-0  85083-4 0  9994,2 54055  53.2175 175.8833 0001447  85.6080 274.5078 15.08845019 96135,6917.865,95.437,540.731,538.729,0.0
54055.0,STARLINK-5158,PAYLOAD,2024-07-13 22:11:55,15.08839742,0.0001524,53.2179,174.6958,92.0865,268.0301,8.8938e-05,1.128e-05,0.0,0 STARLINK-5158,1 54055U 22136E   24195.92495202  .00001128  00000-0  88938-4 0  9999,2 54055  53.2179 174.6958 0001524  92.0865 268.0301 15.08839742 95696,6917.881,95.438,540.8,538.692,0.0
54055.0,STARLINK-5158,PAYLOAD,2024-07-14 04:33:28,15.08836452,0.00015,53.2181,173.5057,90.1144,270.002,5.5178e-05,5.9e-06,0.0,0 STARLINK-5158,1 54055U 22136E   24196.18991584  .00000590  00000-0  55178-4 0  9994,2 54055  53.2181 173.5057 0001500  90.1144 270.0020 15.08836452 96215,6917.891,95.438,540.794,538.719,0.0
54055.0,STARLINK-5158,PAYLOAD,2024-07-14 07:44:14,15.08837535,0.0001481,53.2173,172.9103,89.2749,270.8413,6.9393e-05,8.17e-06,0.0,0 STARLINK-5158,1 54055U 22136E   24196.32239477  .00000817  00000-0  69393-4 0  9992,2 54055  53.2173 172.9103 0001481  89.2749 270.8413 15.08837535 95754,6917.888,95.438,540.777,538.728,0.0
54055.0,STARLINK-5158,PAYLOAD,2024-07-14 15:41:09,15.08846368,0.000149,53.2172,171.424,89.0584,271.0579,9.6657e-05,1.251e-05,0.0,0 STARLINK-5158,1 54055U 22136E   24196.65358783  .00001251  00000-0  96657-4 0  9996,2 54055  53.2172 171.4240 0001490  89.0584 271.0579 15.08846368 96283,6917.861,95.437,540.757,538.695,0.0
54055.0,STARLINK-5158,PAYLOAD,2024-07-15 04:24:15,15.0883952,0.0001309,53.2156,169.0425,97.5419,262.5722,2.0554e-05,3.9e-07,0.0,0 STARLINK-5158,1 54055U 22136E   24197.18351370  .00000039  00000-0  20554-4 0  9996,2 54055  53.2156 169.0425 0001309  97.5419 262.5722 15.08839520 96369,6917.882,95.438,540.652,538.841,0.0
54055.0,STARLINK-5158,PAYLOAD,2024-07-15 21:53:29,15.08833911,0.0001362,53.2188,165.7714,107.0353,253.0788,0.00013326,1.833e-05,0.0,0 STARLINK-5158,1 54055U 22136E   24197.91215151  .00001833  00000-0  13326-3 0  9994,2 54055  53.2188 165.7714 0001362 107.0353 253.0788 15.08833911 95994,6917.899,95.438,540.706,538.822,0.0
54055.0,STARLINK-5158,PAYLOAD,2024-07-16 04:15:02,15.0884135,0.0001584,53.2158,164.5809,103.791,256.3258,7.7601e-06,-1.65e-06,0.0,0 STARLINK-5158,1 54055U 22136E   24198.17711123 -.00000165  00000-0  77601-5 0  9999,2 54055  53.2158 164.5809 0001584 103.7910 256.3258 15.08841350 96031,6917.876,95.437,540.837,538.645,0.0
54055.0,STARLINK-5158,PAYLOAD,2024-07-17 04:05:50,15.08831761,0.0001586,53.2185,160.1233,97.8992,262.218,-7.7077e-05,-1.514e-05,0.0,0 STARLINK-5158,1 54055U 22136E   24199.17072238 -.00001514  00000-0 -77077-4 0  9993,2 54055  53.2185 160.1233 0001586  97.8992 262.2180 15.08831761 96663,6917.906,95.438,540.868,538.673,0.0
54055.0,STARLINK-5158,PAYLOAD,2024-07-18 03:56:37,15.08837505,0.0001484,53.2181,155.6618,95.2617,264.8544,8.8967e-05,1.128e-05,0.0,0 STARLINK-5158,1 54055U 22136E   24200.16431717  .00001128  00000-0  88967-4 0  9995,2 54055  53.2181 155.6618 0001484  95.2617 264.8544 15.08837505 96819,6917.888,95.438,540.78,538.726,0.0
54055.0,STARLINK-5158,PAYLOAD,2024-07-18 13:28:54,15.08850846,0.000136,53.2178,153.8766,91.31,268.8048,0.00014244,1.98e-05,0.0,0 STARLINK-5158,1 54055U 22136E   24200.56174742  .00001980  00000-0  14244-3 0  9993,2 54055  53.2178 153.8766 0001360  91.3100 268.8048 15.08850846 96395,6917.847,95.437,540.653,538.771,0.0
